{
  "type": "FeatureCollection",
  "name": "convexhull",
  "features": [
    {
      "type": "Feature",
      "properties": {},
      "geometry": {
        "type": "Polygon",
        "coordinates": [
          [
            [
              -93.27474030827194,
              38.78430925619641
            ],
            [
              -93.27474229274313,
              38.78430929618056
            ],
            [
              -93.27474427100212,
              38.78430942533096
            ],
            [
              -93.27482138950086,
              38.784316211509285
            ],
            [
              -93.27482315073294,
              38.7843164025376
            ],
            [
              -93.27482489707185,
              38.78431666425218
            ],
            [
              -93.27482662388987,
              38.784316995959536
            ],
            [
              -93.27521049469905,
              38.7843989876762
            ],
            [
              -93.27521217623452,
              38.78439938304035
            ],
            [
              -93.27521382992913,
              38.784399844774185
            ],
            [
              -93.27521545150988,
              38.78440037168463
            ],
            [
              -93.27521703678678,
              38.78440096241019
            ],
            [
              -93.27521858166364,
              38.78440161542451
            ],
            [
              -93.2752571099487,
              38.784418905284404
            ],
            [
              -93.27525851427815,
              38.784419570683326
            ],
            [
              -93.27525987662882,
              38.78442028755613
            ],
            [
              -93.27526119392341,
              38.78442105428351
            ],
            [
              -93.2752624631864,
              38.784421869133624
            ],
            [
              -93.27526624203158,
              38.78442441504439
            ],
            [
              -93.275267606702,
              38.78442538527195
            ],
            [
              -93.27526890328856,
              38.78442641110886
            ],
            [
              -93.27527012809735,
              38.7844274896326
            ],
            [
              -93.27527127763898,
              38.784428617770516
            ],
            [
              -93.2752723486385,
              38.78442979230863
            ],
            [
              -93.27527333804467,
              38.78443100990078
            ],
            [
              -93.27527424303875,
              38.784432267078124
            ],
            [
              -93.27527506104252,
              38.784433560259025
            ],
            [
              -93.2752757897255,
              38.78443488575936
            ],
            [
              -93.27527642701173,
              38.78443623980285
            ],
            [
              -93.27553976198963,
              38.785045391945026
            ],
            [
              -93.27554031066907,
              38.78504678353782
            ],
            [
              -93.27554076281005,
              38.78504819623712
            ],
            [
              -93.2755411171005,
              38.78504962594345
            ],
            [
              -93.2755413725123,
              38.785051068507926
            ],
            [
              -93.27554152830423,
              38.78505251974436
            ],
            [
              -93.27554158402423,
              38.78505397544144
            ],
            [
              -93.27554389228142,
              38.78565369671578
            ],
            [
              -93.27554389213289,
              38.78565389181935
            ],
            [
              -93.27553718910286,
              38.78690174949054
            ],
            [
              -93.27553717541142,
              38.78690240537929
            ],
            [
              -93.27552167990149,
              38.78732829358437
            ],
            [
              -93.2755215862873,
              38.7873296563694
            ],
            [
              -93.27552140492229,
              38.7873310137205
            ],
            [
              -93.27550587441272,
              38.78742439327612
            ],
            [
              -93.27550560719129,
              38.78742573556477
            ],
            [
              -93.27550525415587,
              38.78742706565268
            ],
            [
              -93.27550481619785,
              38.787428380181375
            ],
            [
              -93.2755042944231,
              38.787429675831675
            ],
            [
              -93.27549779170528,
              38.787444512185104
            ],
            [
              -93.27549717810837,
              38.78744580389649
            ],
            [
              -93.27549648120731,
              38.78744706945736
            ],
            [
              -93.27549570281298,
              38.78744830557926
            ],
            [
              -93.27549484494791,
              38.787449509050205
            ],
            [
              -93.27549390984126,
              38.78745067674307
            ],
            [
              -93.2754928999228,
              38.787451805623675
            ],
            [
              -93.27549181781674,
              38.787452892758715
            ],
            [
              -93.27549066633487,
              38.787453935323335
            ],
            [
              -93.27548944846922,
              38.787454930608476
            ],
            [
              -93.27548816738432,
              38.78745587602801
            ],
            [
              -93.27548682640901,
              38.7874567691253
            ],
            [
              -93.27548542902767,
              38.7874576075797
            ],
            [
              -93.27548397887134,
              38.78745838921252
            ],
            [
              -93.27548247970813,
              38.78745911199277
            ],
            [
              -93.27547287186503,
              38.78746348376791
            ],
            [
              -93.2754715529476,
              38.78746405414755
            ],
            [
              -93.27547020350102,
              38.78746457896311
            ],
            [
              -93.27517720913363,
              38.78757235587274
            ],
            [
              -93.2751755824704,
              38.78757291472641
            ],
            [
              -93.27517392124787,
              38.78757340738596
            ],
            [
              -93.275153950714,
              38.78757887458443
            ],
            [
              -93.27515212921787,
              38.78757932936888
            ],
            [
              -93.27515027836151,
              38.78757970457734
            ],
            [
              -93.27514840381541,
              38.78757999906028
            ],
            [
              -93.27468972973439,
              38.78764177152408
            ],
            [
              -93.27468785629402,
              38.78764198264429
            ],
            [
              -93.27468597089086,
              38.78764211313193
            ],
            [
              -93.27468407918597,
              38.7876421625952
            ],
            [
              -93.27468218685937,
              38.78764213088558
            ],
            [
              -93.27373223445086,
              38.78760580955253
            ],
            [
              -93.27373023060531,
              38.78760568710452
            ],
            [
              -93.27372823925187,
              38.787605473643346
            ],
            [
              -93.27314854766873,
              38.78752982535295
            ],
            [
              -93.27314663556602,
              38.7875295322193
            ],
            [
              -93.27314474762345,
              38.7875291551692
            ],
            [
              -93.27296784044266,
              38.78748963283681
            ],
            [
              -93.27296615698904,
              38.7874892200733
            ],
            [
              -93.27296450265658,
              38.78748874057848
            ],
            [
              -93.27296288176032,
              38.78748819560307
            ],
            [
              -93.27296129852812,
              38.78748758656853
            ],
            [
              -93.2729597570896,
              38.787486915063425
            ],
            [
              -93.27295826146539,
              38.7874861828393
            ],
            [
              -93.27295681555657,
              38.78748539180603
            ],
            [
              -93.27295542313459,
              38.78748454402691
            ],
            [
              -93.27295408783134,
              38.78748364171326
            ],
            [
              -93.27295281312978,
              38.787482687218585
            ],
            [
              -93.27295160235477,
              38.787481683032574
            ],
            [
              -93.27295045866441,
              38.78748063177448
            ],
            [
              -93.27294938504185,
              38.78747953618636
            ],
            [
              -93.27294838428746,
              38.78747839912587
            ],
            [
              -93.27294745901156,
              38.78747722355887
            ],
            [
              -93.27294170746516,
              38.78746948011393
            ],
            [
              -93.27294089529224,
              38.78746832248146
            ],
            [
              -93.27294015632133,
              38.78746713518706
            ],
            [
              -93.27293949231594,
              38.787465921064054
            ],
            [
              -93.27293890486065,
              38.78746468300983
            ],
            [
              -93.27280867405906,
              38.78716822802632
            ],
            [
              -93.27280814775202,
              38.78716692349065
            ],
            [
              -93.27280770643445,
              38.78716559978751
            ],
            [
              -93.27271625697453,
              38.786859833202
            ],
            [
              -93.27271593981418,
              38.78685865513768
            ],
            [
              -93.27271568998128,
              38.78685746718979
            ],
            [
              -93.27271550797127,
              38.78685627171419
            ],
            [
              -93.27264498029689,
              38.78628503213917
            ],
            [
              -93.27264486272509,
              38.78628377373053
            ],
            [
              -93.27264482030091,
              38.786282512398856
            ],
            [
              -93.27263949046979,
              38.784883017963544
            ],
            [
              -93.27263952974707,
              38.78488164596216
            ],
            [
              -93.27263965792679,
              38.784880277288465
            ],
            [
              -93.27268850864202,
              38.78449357094711
            ],
            [
              -93.27268873914959,
              38.784492138190295
            ],
            [
              -93.27268906707151,
              38.784490717111076
            ],
            [
              -93.27268949147215,
              38.784489311764
            ],
            [
              -93.27269001114063,
              38.78448792615878
            ],
            [
              -93.27269062459422,
              38.7844865642488
            ],
            [
              -93.27269133008264,
              38.78448522991983
            ],
            [
              -93.27271041213554,
              38.78445170254454
            ],
            [
              -93.27271119822949,
              38.78445041403283
            ],
            [
              -93.27271207014445,
              38.78444915980338
            ],
            [
              -93.27271302544821,
              38.78444794335489
            ],
            [
              -93.27271406147588,
              38.7844467680807
            ],
            [
              -93.27271517533747,
              38.78444563725924
            ],
            [
              -93.2727163639258,
              38.78444455404497
            ],
            [
              -93.27271762392526,
              38.78444352145957
            ],
            [
              -93.27271895182106,
              38.784442542383466
            ],
            [
              -93.27272034390899,
              38.78444161954782
            ],
            [
              -93.27272179630576,
              38.78444075552688
            ],
            [
              -93.27272330495991,
              38.7844399527309
            ],
            [
              -93.27272486566294,
              38.784439213399274
            ],
            [
              -93.27272647406127,
              38.78443853959438
            ],
            [
              -93.27272812566821,
              38.784437933195846
            ],
            [
              -93.27272981587653,
              38.78443739589523
            ],
            [
              -93.2727315399714,
              38.78443692919134
            ],
            [
              -93.27273329314338,
              38.78443653438604
            ],
            [
              -93.27273507050194,
              38.784436212580694
            ],
            [
              -93.27273686708907,
              38.78443596467296
            ],
            [
              -93.27273867789317,
              38.784435791354376
            ],
            [
              -93.27345183505841,
              38.78438244839632
            ],
            [
              -93.27345247321621,
              38.78438240533083
            ],
            [
              -93.27466369312296,
              38.78430950976933
            ],
            [
              -93.27466623770718,
              38.78430943030956
            ],
            [
              -93.27474030827194,
              38.78430925619641
            ]
          ]
        ]
      }
    }
  ]
}