{
"type": "FeatureCollection",
"name": "convexhull",
"features": [
{ "type": "Feature", "properties": { }, "geometry": { "type": "Polygon", "coordinates": [ [ [ 476137.675263137323782, 4292877.429782971739769 ], [ 476137.502916698576882, 4292877.434737612493336 ], [ 476137.331139536341652, 4292877.449585168622434 ], [ 476130.635332398291212, 4292878.222750379703939 ], [ 476130.482425603549927, 4292878.244407869875431 ], [ 476130.330835913715418, 4292878.273905338719487 ], [ 476130.180965033534449, 4292878.311164619401097 ], [ 476096.867530764138792, 4292887.509804738685489 ], [ 476096.721614440437406, 4292887.554116639308631 ], [ 476096.578138372628018, 4292887.6057861270383 ], [ 476096.437473288795445, 4292887.664679693989456 ], [ 476096.299982653697953, 4292887.730645164847374 ], [ 476096.166021729761269, 4292887.803512090817094 ], [ 476092.825454219651874, 4292889.732189642265439 ], [ 476092.703704618092161, 4292889.806394179351628 ], [ 476092.585618238663301, 4292889.886299659498036 ], [ 476092.47146181599237, 4292889.97172559145838 ], [ 476092.361493207572494, 4292890.062479015439749 ], [ 476092.034135135123506, 4292890.345979422330856 ], [ 476091.915931896190159, 4292890.453999599441886 ], [ 476091.80366059608059, 4292890.568172798492014 ], [ 476091.697641087870579, 4292890.688173749484122 ], [ 476091.598175413615536, 4292890.813660576939583 ], [ 476091.505546944041271, 4292890.944275778718293 ], [ 476091.420019571087323, 4292891.079647240228951 ], [ 476091.341836956155021, 4292891.219389299862087 ], [ 476091.271221836039331, 4292891.363103839568794 ], [ 476091.208375388232525, 4292891.510381428524852 ], [ 476091.153476657695137, 4292891.660802483558655 ], [ 476068.485380566387903, 4292959.32560729701072 ], [ 476068.438191096356604, 4292959.480172088369727 ], [ 476068.399393373227213, 4292959.637053755111992 ], [ 476068.369099984352943, 4292959.795797042548656 ], [ 476068.347398838261142, 4292959.955941292457283 ], [ 476068.334352909470908, 4292960.117021783255041 ], [ 476068.330000056012068, 4292960.278571073897183 ], [ 476068.330000056012068, 4293026.828603687696159 ], [ 476068.330078177968971, 4293026.850253758952022 ], [ 476069.329396576096769, 4293165.31987286824733 ], [ 476069.330804951896425, 4293165.392651483416557 ], [ 476070.818970684602391, 4293212.648260246962309 ], [ 476070.827556678268593, 4293212.799460331909359 ], [ 476070.843762065342162, 4293212.950034468434751 ], [ 476072.223808753478806, 4293223.308048721402884 ], [ 476072.247465730237309, 4293223.456928964704275 ], [ 476072.27857161470456, 4293223.60443287435919 ], [ 476072.317047864606138, 4293223.75018800329417 ], [ 476072.362797327339649, 4293223.89382631983608 ], [ 476072.932520440663211, 4293225.538475284352899 ], [ 476072.986243359569926, 4293225.681652492843568 ], [ 476073.047192538273521, 4293225.821906058117747 ], [ 476073.115209604671691, 4293225.958871541544795 ], [ 476073.190117821330205, 4293226.092193048447371 ], [ 476073.271722544508521, 4293226.221524151042104 ], [ 476073.359811730042566, 4293226.346528792753816 ], [ 476073.45415648445487, 4293226.46688215713948 ], [ 476073.554511659487616, 4293226.582271514460444 ], [ 476073.660616489418317, 4293226.692397033795714 ], [ 476073.772195268189535, 4293226.796972562558949 ], [ 476073.888958066294435, 4293226.89572636783123 ], [ 476074.010601483867504, 4293226.988401844166219 ], [ 476074.136809438990895, 4293227.074758182279766 ], [ 476074.267253989062738, 4293227.154570990242064 ], [ 476075.103160456346814, 4293227.637181813828647 ], [ 476075.217899629613385, 4293227.700130299665034 ], [ 476075.335275044722948, 4293227.758014681749046 ], [ 476100.817943271948025, 4293239.641127476468682 ], [ 476100.959406032576226, 4293239.7027169149369 ], [ 476101.103848177473992, 4293239.756951943971217 ], [ 476102.840120051521808, 4293240.358414163812995 ], [ 476102.998469334619585, 4293240.408404451794922 ], [ 476103.159341997234151, 4293240.449556740000844 ], [ 476103.322245169838425, 4293240.481744947843254 ], [ 476143.178807227581274, 4293247.216729389503598 ], [ 476143.341586278460454, 4293247.239668168127537 ], [ 476143.505377427558415, 4293247.253656250424683 ], [ 476143.669688879046589, 4293247.25865163654089 ], [ 476143.834027274919208, 4293247.254639327526093 ], [ 476226.32553063967498, 4293242.97681073192507 ], [ 476226.49952446721727, 4293242.96270215138793 ], [ 476226.672403127071448, 4293242.938497336581349 ], [ 476276.993694070726633, 4293234.393494137562811 ], [ 476277.159663706086576, 4293234.360469941049814 ], [ 476277.323507217573933, 4293234.318140031769872 ], [ 476292.674867947469465, 4293229.886583905667067 ], [ 476292.820939857047051, 4293229.840344300493598 ], [ 476292.964460486604366, 4293229.786707254126668 ], [ 476293.105055484862532, 4293229.725812669843435 ], [ 476293.242358131508809, 4293229.657819382846355 ], [ 476293.376010293897707, 4293229.582904742099345 ], [ 476293.505663361167535, 4293229.501264151185751 ], [ 476293.630979153327644, 4293229.413110557943583 ], [ 476293.751630803628359, 4293229.318673895671964 ], [ 476293.86730361089576, 4293229.218200488947332 ], [ 476293.977695860608947, 4293229.111952405422926 ], [ 476294.082519611692987, 4293229.000206778757274 ], [ 476294.181501447688788, 4293228.883255079388618 ], [ 476294.274383189738728, 4293228.761402357369661 ], [ 476294.360922570282128, 4293228.634966447018087 ], [ 476294.440893864724785, 4293228.504277136176825 ], [ 476294.937853797979187, 4293227.643517281860113 ], [ 476295.008008011616766, 4293227.514847438782454 ], [ 476295.07179477729369, 4293227.382905062288046 ], [ 476295.129061874642503, 4293227.248005018569529 ], [ 476295.179672642028891, 4293227.110469232313335 ], [ 476306.392150919069536, 4293194.179917044006288 ], [ 476306.437429320125375, 4293194.035019912756979 ], [ 476306.475319974299055, 4293193.888017835095525 ], [ 476314.316608458873816, 4293159.934242696501315 ], [ 476314.343764417630155, 4293159.803433963097632 ], [ 476314.365069640625734, 4293159.671545911580324 ], [ 476314.380481876432896, 4293159.538840094581246 ], [ 476320.31693752045976, 4293096.131676192395389 ], [ 476320.326732594636269, 4293095.992003576830029 ], [ 476320.329999991809018, 4293095.852026053704321 ], [ 476320.329999991809018, 4292940.552580550312996 ], [ 476320.326134815288242, 4292940.400343499146402 ], [ 476320.314549245289527, 4292940.248498730361462 ], [ 476315.943760859721806, 4292897.349409254267812 ], [ 476315.923266366880853, 4292897.190479869022965 ], [ 476315.894314907491207, 4292897.032871535979211 ], [ 476315.856989085150417, 4292896.87703393958509 ], [ 476315.811395397060551, 4292896.723411710001528 ], [ 476315.757663929834962, 4292896.572443160228431 ], [ 476315.695947988890111, 4292896.424559028819203 ], [ 476314.027502308308613, 4292892.709059856832027 ], [ 476313.958800545718987, 4292892.566280829720199 ], [ 476313.882656216737814, 4292892.427328233607113 ], [ 476313.799281728395727, 4292892.292589681223035 ], [ 476313.70890965644503, 4292892.162441031076014 ], [ 476313.611792096518911, 4292892.037245335057378 ], [ 476313.508199961215723, 4292891.917351830750704 ], [ 476313.39842222398147, 4292891.803094966337085 ], [ 476313.282765113282949, 4292891.694793463684618 ], [ 476313.161551258293912, 4292891.592749432660639 ], [ 476313.035118788888212, 4292891.497247530147433 ], [ 476312.903820392268244, 4292891.408554160967469 ], [ 476312.768022329604719, 4292891.326916737481952 ], [ 476312.628103413793724, 4292891.252562990412116 ], [ 476312.484453953045886, 4292891.185700330883265 ], [ 476312.337474661995657, 4292891.126515275798738 ], [ 476312.187575544056017, 4292891.075172922573984 ], [ 476312.035174747579731, 4292891.031816493719816 ], [ 476311.8806973992032, 4292890.996566931717098 ], [ 476311.724574418505654, 4292890.969522567465901 ], [ 476311.56724131538067, 4292890.950758841820061 ], [ 476249.608922785788309, 4292885.216371897608042 ], [ 476249.553481836337596, 4292885.211758743040264 ], [ 476144.329699246678501, 4292877.437936756759882 ], [ 476144.108664806408342, 4292877.429782971739769 ], [ 476137.675263137323782, 4292877.429782971739769 ] ] ] } }
]
}
